STARLINK-4691           
1 53588U 22104A   22269.91667824 -.01115558  00000+0 -22629-1 0  9991
2 53588  53.2175 142.0297 0001187 113.6445 304.3007 15.48786379  4706
STARLINK-4673           
1 53589U 22104B   22269.91667824 -.00632625  00000+0 -12064-1 0  9992
2 53589  53.2172 142.0147 0001198 116.9782 308.4223 15.49892945  4703
STARLINK-4689           
1 53590U 22104C   22269.91667824 -.01115587  00000+0 -22386-1 0  9996
2 53590  53.2175 142.0262 0001265 122.5577 297.1009 15.49091555  4700
STARLINK-4674           
1 53591U 22104D   22269.91667824 -.01115735  00000+0 -22148-1 0  9998
2 53591  53.2175 142.0224 0001286 124.4097 296.8228 15.49396788  4705
STARLINK-4672           
1 53592U 22104E   22269.58334491 -.00585208  00000+0 -11070-1 0  9990
2 53592  53.2165 143.6115 0001170 106.3427 255.6171 15.49949133  1300
STARLINK-4671           
1 53593U 22104F   22269.91667824 -.01005322  00000+0 -19382-1 0  9996
2 53593  53.2173 142.0168 0001353 124.8417 299.1619 15.49924319  4704
STARLINK-4681           
1 53594U 22104G   22269.91667824 -.00354364  00000+0 -64965-2 0  9997
2 53594  53.2166 142.0114 0001290  77.8895 350.0644 15.49996022  4700
STARLINK-4684           
1 53595U 22104H   22269.91667824 -.00621129  00000+0 -11768-1 0  9996
2 53595  53.2167 142.0119 0001272 109.1876 317.4833 15.50033656  5115
STARLINK-4668           
1 53596U 22104J   22269.58334491  .00053180  00000+0  93881-3 0  9993
2 53596  53.2147 143.5959 0001823 118.3668 250.9054 15.49877010  1306
STARLINK-4682           
1 53597U 22104K   22269.58334491  .00053556  00000+0  94607-3 0  9998
2 53597  53.2148 143.5980 0000784 119.6580 248.6641 15.49856057  1308
STARLINK-4676           
1 53598U 22104L   22269.58334491  .00052492  00000+0  92803-3 0  9993
2 53598  53.2157 143.5956 0001304 103.8838 268.1181 15.49841373  1303
STARLINK-4665           
1 53599U 22104M   22269.91667824  .00090651  00000+0  38196-3 0  9994
2 53599  53.2145 138.8033 0000681 359.4520 207.0037 15.84748336  4745
STARLINK-4677           
1 53600U 22104N   22269.58334491  .00198911  00000+0  34431-2 0  9996
2 53600  53.2165 143.5853 0001011 101.3840 273.3557 15.49728924  5061
STARLINK-4675           
1 53601U 22104P   22269.58334491  .00043379  00000+0  76786-3 0  9994
2 53601  53.2149 143.5933 0001025 112.2593 258.6303 15.49890820  1307
STARLINK-4648           
1 53602U 22104Q   22269.58334491 -.01054846  00000+0 -11841-1 0  9998
2 53602  53.2167 142.3395 0001166 112.2996 159.6063 15.64819524  1302
STARLINK-4692           
1 53603U 22104R   22269.58334491 -.01064982  00000+0 -11980-1 0  9995
2 53603  53.2166 142.3413 0001186 114.5715 156.2719 15.64794218  1302
STARLINK-4690           
1 53604U 22104S   22269.91667824 -.01050276  00000+0 -12116-1 0  9995
2 53604  53.2174 140.7084 0001422 137.2118 215.2318 15.64122648  4711
STARLINK-4693           
1 53605U 22104T   22269.58334491  .00053963  00000+0  95354-3 0  9990
2 53605  53.2146 143.5877 0001227 107.6442 265.7862 15.49844149  1302
STARLINK-4590           
1 53606U 22104U   22269.91667824 -.00051580  00000+0 -36492-3 0  9990
2 53606  53.2142 140.5741 0001308 108.6797 312.7411 15.73227223  4716
STARLINK-4591           
1 53607U 22104V   22269.58334491 -.01056338  00000+0 -11845-1 0  9995
2 53607  53.2167 142.3376 0001113 103.7780 169.1136 15.64850835  1301
STARLINK-4647           
1 53608U 22104W   22269.58334491  .00088632  00000+0  63109-3 0  9997
2 53608  53.2146 142.2212 0001184 129.3792 201.3572 15.73132789  1306
STARLINK-4660           
1 53609U 22104X   22269.58334491 -.01060038  00000+0 -11856-1 0  9991
2 53609  53.2167 142.3331 0001308 127.9807 147.0230 15.64922979  1307
STARLINK-4610           
1 53610U 22104Y   22269.58334491  .00088141  00000+0  62760-3 0  9997
2 53610  53.2147 142.2197 0001367 125.8648 206.0528 15.73134683  1304
STARLINK-4650           
1 53611U 22104Z   22269.91667824  .00024587  00000+0  17922-3 0  9998
2 53611  53.2143 140.5738 0001599 108.9838 310.0359 15.73182598  4717
STARLINK-4658           
1 53612U 22104AA  22269.91667824  .00024665  00000+0  17980-3 0  9990
2 53612  53.2144 140.5685 0001450 140.4111 282.1873 15.73179271  4715
STARLINK-4655           
1 53613U 22104AB  22269.91667824 -.00086462  00000+0 -61648-3 0  9996
2 53613  53.2143 140.5722 0001066 103.4491 316.8488 15.73256833  4717
STARLINK-4605           
1 53616U 22104AE  22269.58334491  .00089507  00000+0  63619-3 0  9994
2 53616  53.2161 141.5088 0000918 100.3096 217.3391 15.73170522  1308
STARLINK-4601           
1 53617U 22104AF  22269.91667824 -.00046481  00000+0 -32815-3 0  9991
2 53617  53.2148 140.5692 0001223 116.9979 306.1965 15.73231188  4726
STARLINK-4604           
1 53618U 22104AG  22269.58334491  .00086651  00000+0  61713-3 0  9996
2 53618  53.2151 142.2130 0001144 123.1351 213.5367 15.73136633  1300
STARLINK-4609           
1 53619U 22104AH  22269.91667824  .00025560  00000+0  18595-3 0  9995
2 53619  53.2143 140.5652 0001082 109.6540 314.1603 15.73203759  4726
STARLINK-4615           
1 53620U 22104AJ  22269.91667824 -.00048964  00000+0 -34622-3 0  9991
2 53620  53.2143 140.5597 0001329 108.7016 318.1380 15.73217748  4727
STARLINK-4608           
1 53621U 22104AK  22269.58334491  .00094974  00000+0  67496-3 0  9991
2 53621  53.2147 142.2124 0001401 142.7713 193.3275 15.73148775  1300
STARLINK-4568           
1 53622U 22104AL  22269.91667824  .00025158  00000+0  18337-3 0  9996
2 53622  53.2139 140.5557 0001395 102.7663 325.2036 15.73168898  4723
STARLINK-4573           
1 53623U 22104AM  22269.91667824  .00022004  00000+0  16060-3 0  9995
2 53623  53.2143 140.5613 0001247 121.4160 304.8041 15.73226903  4729
STARLINK-4596           
1 53624U 22104AN  22269.91667824  .00023831  00000+0  17384-3 0  9995
2 53624  53.2146 140.5585 0001288 115.5811 312.9768 15.73184904  4723
STARLINK-4603           
1 53625U 22104AP  22269.58334491  .00087308  00000+0  62111-3 0  9997
2 53625  53.2146 142.2073 0001410 130.7583 207.7578 15.73159661  1300
STARLINK-4554           
1 53626U 22104AQ  22269.58334491  .00043511  00000+0  31330-3 0  9995
2 53626  53.2148 142.2028 0001259 120.5962 221.0183 15.73164772  1302
STARLINK-4595           
1 53627U 22104AR  22269.58334491 -.00006461  00000+0 -41681-4 0  9992
2 53627  53.2146 142.2040 0001430 128.3785 211.8927 15.73182617  1306
STARLINK-4600           
1 53628U 22104AS  22269.91667824 -.00089426  00000+0 -63814-3 0  9992
2 53628  53.2146 140.5532 0001078 123.2698 308.3344 15.73251412  4723
STARLINK-4602           
1 53629U 22104AT  22269.58334491  .00088472  00000+0  62945-3 0  9999
2 53629  53.2147 142.2030 0001100 126.6562 214.2462 15.73152307  1300
STARLINK-4598           
1 53630U 22104AU  22269.91667824 -.00093828  00000+0 -67078-3 0  9992
2 53630  53.2144 140.5507 0001106 118.8278 313.4414 15.73228536  4728
STARLINK-4599           
1 53631U 22104AV  22269.58334491 -.00018947  00000+0 -13095-3 0  9996
2 53631  53.2144 142.1998 0001357 130.0804 212.0117 15.73187771  4662
STARLINK-4606           
1 53632U 22104AW  22269.91667824  .00024779  00000+0  18067-3 0  9995
2 53632  53.2143 140.5490 0001225 114.1843 319.1402 15.73171022  4726
STARLINK-4593           
1 53633U 22104AX  22269.58334491  .00088544  00000+0  63017-3 0  9995
2 53633  53.2145 142.1969 0001418 131.1053 212.7491 15.73143922  1309
STARLINK-4592           
1 53634U 22104AY  22269.91667824 -.00032270  00000+0 -22633-3 0  9998
2 53634  53.2141 140.5445 0001275 110.7697 323.8908 15.73205807  4722
STARLINK-4587           
1 53635U 22104AZ  22269.58334491  .00019736  00000+0  14486-3 0  9990
2 53635  53.2139 142.1909 0001233 130.0008 215.1828 15.73175057  1306
STARLINK-4586           
1 53636U 22104BA  22269.58334491  .00087013  00000+0  62035-3 0  9997
2 53636  53.2145 142.1913 0001116 120.9033 225.9290 15.73110552  1306
STARLINK-4396           
1 53637U 22104BB  22269.58334491  .00088684  00000+0  63053-3 0  9994
2 53637  53.2147 142.1935 0001373 123.1233 223.1084 15.73167012  1309
STARLINK-4594           
1 53638U 22104BC  22269.58334491  .00085963  00000+0  61201-3 0  9995
2 53638  53.2143 142.1886 0001532 122.8843 225.1150 15.73147985  1304
STARLINK-4422           
1 53639U 22104BD  22269.91667824 -.00020747  00000+0 -14367-3 0  9994
2 53639  53.2174 140.5402 0001250 133.6776 302.6784 15.73216719  4722
STARLINK-4597           
1 53640U 22104BE  22269.91667824 -.00047942  00000+0 -33884-3 0  9997
2 53640  53.2138 140.5385 0001431 121.3884 316.1786 15.73218486  4724
STARLINK-4588           
1 53641U 22104BF  22269.58334491  .00088324  00000+0  62833-3 0  9995
2 53641  53.2145 142.1871 0001451 128.8190 220.4263 15.73155111  1308
STARLINK-4622           
1 53648U 22105A   22269.58334491 -.01038746  00000+0 -20273-1 0  9999
2 53648  97.6550 148.7540 0002269 140.2897 334.7820 15.50160959  1301
STARLINK-4386           
1 53649U 22105B   22269.58334491 -.01241213  00000+0 -28652-1 0  9994
2 53649  97.6556 148.7489 0002516 148.7103 203.6330 15.45390307  1304
STARLINK-4380           
1 53650U 22105C   22269.58334491 -.01255750  00000+0 -28904-1 0  9997
2 53650  97.6555 148.7476 0003749 251.5789 102.2595 15.45496088  1303
STARLINK-4388           
1 53651U 22105D   22269.58334491 -.01234239  00000+0 -28326-1 0  9995
2 53651  97.6554 148.7468 0002453 148.0609 206.8548 15.45543947  1302
STARLINK-4374           
1 53652U 22105E   22269.58334491 -.01215142  00000+0 -26579-1 0  9996
2 53652  97.6556 148.7492 0002062 136.9022 229.0944 15.46896705  1304
STARLINK-4390           
1 53653U 22105F   22269.58334491 -.01242651  00000+0 -27060-1 0  9998
2 53653  97.6552 148.7480 0002262 145.3196 222.3653 15.47086244  1309
STARLINK-4420           
1 53654U 22105G   22269.58334491 -.01271006  00000+0 -27388-1 0  9998
2 53654  97.6552 148.7464 0002376 149.4567 222.1441 15.47452497  1305
